[{"OBJECT_NAME":"STARLINK-34344","OBJECT_ID":"2025-112P","EPOCH":"2026-03-09T16:19:10.168320","MEAN_MOTION":15.05656993,"ECCENTRICITY":0.0001439,"INCLINATION":97.6036,"RA_OF_ASC_NODE":121.4644,"ARG_OF_PERICENTER":102.9545,"MEAN_ANOMALY":257.1842,"EPHEMERIS_TYPE":0,"CLASSIFICATION_TYPE":"U","NORAD_CAT_ID":64159,"ELEMENT_SET_NO":999,"REV_AT_EPOCH":4330,"BSTAR":0.00040782382,"MEAN_MOTION_DOT":5.83e-5,"MEAN_MOTION_DDOT":0},{"OBJECT_NAME":"NTS (CANX-6)","OBJECT_ID":"2008-021B","EPOCH":"2026-03-09T21:01:43.854528","MEAN_MOTION":15.02479058,"ECCENTRICITY":0.00123192,"INCLINATION":97.9039,"RA_OF_ASC_NODE":46.2456,"ARG_OF_PERICENTER":105.3107,"MEAN_ANOMALY":254.9479,"EPHEMERIS_TYPE":0,"CLASSIFICATION_TYPE":"U","NORAD_CAT_ID":32784,"ELEMENT_SET_NO":999,"REV_AT_EPOCH":96921,"BSTAR":0.00045679857,"MEAN_MOTION_DOT":6.01e-5,"MEAN_MOTION_DDOT":0}]
